NORAD_CAT_ID,OBJECT_NAME,OBJECT_TYPE,EPOCH,MEAN_MOTION,ECCENTRICITY,INCLINATION,RA_OF_ASC_NODE,ARG_OF_PERICENTER,MEAN_ANOMALY,BSTAR,MEAN_MOTION_DOT,MEAN_MOTION_DDOT,TLE_LINE0,TLE_LINE1,TLE_LINE2,SEMIMAJOR_AXIS,PERIOD,APOGEE,PERIGEE,DECAYED
53781.0,STARLINK-4462,PAYLOAD,2023-05-29 09:52:11,15.08842258,0.0001141,53.2154,151.8797,79.6355,280.4766,5.6171e-05,6.06e-06,0.0,0 STARLINK-4462,1 53781U 22111J   23149.41124313  .00000606  00000-0  56171-4 0  9995,2 53781  53.2154 151.8797 0001141  79.6355 280.4766 15.08842258 40422,6917.873,95.437,540.528,538.949,0.0
53781.0,STARLINK-4462,PAYLOAD,2023-05-29 17:49:07,15.08839992,0.0001136,53.2153,150.3925,79.8198,280.2922,2.4869e-05,1.08e-06,0.0,0 STARLINK-4462,1 53781U 22111J   23149.74244498  .00000108  00000-0  24869-4 0  9994,2 53781  53.2153 150.3925 0001136  79.8198 280.2922 15.08839992 40477,6917.88,95.438,540.531,538.96,0.0
53781.0,STARLINK-4462,PAYLOAD,2023-05-29 22:35:16,15.08837349,0.0001169,53.2154,149.5006,80.8749,279.2375,-1.5248e-05,-5.3e-06,0.0,0 STARLINK-4462,1 53781U 22111J   23149.94116806 -.00000530  00000-0 -15248-4 0  9999,2 53781  53.2154 149.5006 0001169  80.8749 279.2375 15.08837349 39694,6917.888,95.438,540.562,538.945,0.0
53781.0,STARLINK-4462,PAYLOAD,2023-05-30 09:42:58,15.08837694,0.0001182,53.2156,147.4189,83.0724,277.0402,-7.6827e-06,-4.1e-06,0.0,0 STARLINK-4462,1 53781U 22111J   23150.40484771 -.00000410  00000-0 -76827-5 0  9999,2 53781  53.2156 147.4189 0001182  83.0724 277.0402 15.08837694 40577,6917.887,95.438,540.57,538.935,0.0
53781.0,STARLINK-4462,PAYLOAD,2023-05-31 04:47:36,15.08839255,0.0001178,53.2156,143.8504,82.4862,277.6264,2.2517e-05,7.1e-07,0.0,0 STARLINK-4462,1 53781U 22111J   23151.19972648  .00000071  00000-0  22517-4 0  9998,2 53781  53.2156 143.8504 0001178  82.4862 277.6264 15.08839255 39888,6917.883,95.438,540.563,538.933,0.0
53781.0,STARLINK-4462,PAYLOAD,2023-05-31 09:33:45,15.08839774,0.0001179,53.2156,142.9586,81.4291,278.6834,2.6325e-05,1.31e-06,0.0,0 STARLINK-4462,1 53781U 22111J   23151.39844610  .00000131  00000-0  26325-4 0  9995,2 53781  53.2156 142.9586 0001179  81.4291 278.6834 15.08839774 40729,6917.881,95.438,540.562,538.93,0.0
53781.0,STARLINK-4462,PAYLOAD,2023-05-31 15:55:18,15.08838883,0.0001184,53.2157,141.769,81.2124,278.9002,1.94e-05,2.1e-07,0.0,0 STARLINK-4462,1 53781U 22111J   23151.66340699  .00000021  00000-0  19400-4 0  9997,2 53781  53.2157 141.7690 0001184  81.2124 278.9002 15.08838883 40766,6917.884,95.438,540.568,538.93,0.0
53781.0,STARLINK-4462,PAYLOAD,2023-06-01 09:24:32,15.08840281,0.0001183,53.2156,138.4982,80.9335,279.1791,7.506e-05,9.07e-06,0.0,0 STARLINK-4462,1 53781U 22111J   23152.39204526  .00000907  00000-0  75060-4 0  9993,2 53781  53.2156 138.4982 0001183  80.9335 279.1791 15.08840281 40876,6917.88,95.438,540.563,538.926,0.0
53781.0,STARLINK-4462,PAYLOAD,2023-06-01 22:07:38,15.08834851,0.0001199,53.2154,136.1192,81.2439,278.8689,4.7987e-06,-2.11e-06,0.0,0 STARLINK-4462,1 53781U 22111J   23152.92197212 -.00000211  00000-0  47987-5 0  9992,2 53781  53.2154 136.1192 0001199  81.2439 278.8689 15.08834851 40146,6917.896,95.438,540.591,538.932,0.0
53781.0,STARLINK-4462,PAYLOAD,2023-06-02 06:04:33,15.08838192,0.0001195,53.2154,134.6324,81.4836,278.6291,3.0203e-05,1.93e-06,0.0,0 STARLINK-4462,1 53781U 22111J   23153.25316971  .00000193  00000-0  30203-4 0  9994,2 53781  53.2154 134.6324 0001195  81.4836 278.6291 15.08838192 41000,6917.886,95.438,540.578,538.924,0.0
53781.0,STARLINK-4462,PAYLOAD,2023-06-02 15:36:52,15.08834766,0.000113,53.215,132.8485,86.4276,273.6845,1.7483e-05,-1e-07,0.0,0 STARLINK-4462,1 53781U 22111J   23153.65061312 -.00000010  00000-0  17483-4 0  9998,2 53781  53.2150 132.8485 0001130  86.4276 273.6845 15.08834766 41065,6917.896,95.438,540.543,538.98,0.0
53781.0,STARLINK-4462,PAYLOAD,2023-06-03 02:44:35,15.08832926,0.0001169,53.2151,130.7673,95.5174,264.5952,6.2076e-06,-1.89e-06,0.0,0 STARLINK-4462,1 53781U 22111J   23154.11429602 -.00000189  00000-0  62076-5 0  9996,2 53781  53.2151 130.7673 0001169  95.5174 264.5952 15.08832926 40324,6917.902,95.438,540.576,538.958,0.0
53781.0,STARLINK-4462,PAYLOAD,2023-06-03 07:30:44,15.08836148,0.0001202,53.2152,129.875,91.033,269.08,6.8e-07,-2.77e-06,0.0,0 STARLINK-4462,1 53781U 22111J   23154.31301486 -.00000277  00000-0  68000-6 0  9999,2 53781  53.2152 129.8750 0001202  91.0330 269.0800 15.08836148 41168,6917.892,95.438,540.589,538.926,0.0
53781.0,STARLINK-4462,PAYLOAD,2023-06-03 15:27:40,15.08835766,0.0001204,53.2155,128.3881,90.9225,269.1905,1.383e-05,-6.8e-07,0.0,0 STARLINK-4462,1 53781U 22111J   23154.64421534 -.00000068  00000-0  13830-4 0  9999,2 53781  53.2155 128.3881 0001204  90.9225 269.1905 15.08835766 41211,6917.893,95.438,540.591,538.925,0.0
53781.0,STARLINK-4462,PAYLOAD,2023-06-04 07:21:31,15.08839163,0.0001224,53.2158,125.4144,90.6792,269.434,5.8137e-05,6.37e-06,0.0,0 STARLINK-4462,1 53781U 22111J   23155.30661382  .00000637  00000-0  58137-4 0  9990,2 53781  53.2158 125.4144 0001224  90.6792 269.4340 15.08839163 40504,6917.883,95.438,540.595,538.901,0.0
53781.0,STARLINK-4462,PAYLOAD,2023-06-04 15:18:27,15.08835188,0.0001225,53.2159,123.9269,90.9819,269.1313,4.0459e-05,3.56e-06,0.0,0 STARLINK-4462,1 53781U 22111J   23155.63781724  .00000356  00000-0  40459-4 0  9995,2 53781  53.2159 123.9269 0001225  90.9819 269.1313 15.08835188 41365,6917.895,95.438,540.608,538.913,0.0
53781.0,STARLINK-4462,PAYLOAD,2023-06-05 07:12:18,15.0884182,0.0001246,53.216,120.9528,91.6373,268.4762,8.5294e-05,1.07e-05,0.0,0 STARLINK-4462,1 53781U 22111J   23156.30021294  .00001070  00000-0  85294-4 0  9999,2 53781  53.2160 120.9528 0001246  91.6373 268.4762 15.08841820 41469,6917.875,95.437,540.602,538.878,0.0
53781.0,STARLINK-4462,PAYLOAD,2023-06-05 15:09:14,15.08840971,0.0001245,53.2161,119.466,91.4238,268.6897,7.8789e-05,9.66e-06,0.0,0 STARLINK-4462,1 53781U 22111J   23156.63141357  .00000966  00000-0  78789-4 0  9992,2 53781  53.2161 119.4660 0001245  91.4238 268.6897 15.08840971 40700,6917.877,95.437,540.604,538.881,0.0
53781.0,STARLINK-4462,PAYLOAD,2023-06-06 03:52:18,15.08845224,0.0001281,53.2162,117.0867,94.6383,265.4756,7.5244e-05,9.1e-06,0.0,0 STARLINK-4462,1 53781U 22111J   23157.16133075  .00000910  00000-0  75244-4 0  9991,2 53781  53.2162 117.0867 0001281  94.6383 265.4756 15.08845224 41593,6917.864,95.437,540.616,538.843,0.0
53781.0,STARLINK-4462,PAYLOAD,2023-06-06 22:56:57,15.0883715,0.0001292,53.2163,113.5172,100.5147,259.599,-6.7109e-06,-3.95e-06,0.0,0 STARLINK-4462,1 53781U 22111J   23157.95621793 -.00000395  00000-0 -67109-5 0  9998,2 53781  53.2163 113.5172 0001292 100.5147 259.5990 15.08837150 40908,6917.889,95.438,540.648,538.86,0.0
53781.0,STARLINK-4462,PAYLOAD,2023-06-07 06:53:52,15.08841139,0.0001256,53.2164,112.0307,99.5479,260.5655,1.8505e-05,7e-08,0.0,0 STARLINK-4462,1 53781U 22111J   23158.28741452  .00000007  00000-0  18505-4 0  9993,2 53781  53.2164 112.0307 0001256  99.5479 260.5655 15.08841139 41765,6917.877,95.437,540.611,538.873,0.0
53781.0,STARLINK-4462,PAYLOAD,2023-06-07 21:12:21,15.08833584,0.0001222,53.2161,109.3544,100.465,259.648,-4.8433e-05,-1.058e-05,0.0,0 STARLINK-4462,1 53781U 22111J   23158.88358259 -.00001058  00000-0 -48433-4 0  9990,2 53781  53.2161 109.3544 0001222 100.4650 259.6480 15.08833584 41850,6917.9,95.438,540.61,538.92,0.0
53781.0,STARLINK-4462,PAYLOAD,2023-06-08 00:23:07,15.08834436,0.0001239,53.2161,108.7593,102.891,257.2221,-4.2145e-05,-9.58e-06,0.0,0 STARLINK-4462,1 53781U 22111J   23159.01606213 -.00000958  00000-0 -42145-4 0  9994,2 53781  53.2161 108.7593 0001239 102.8910 257.2221 15.08834436 41067,6917.897,95.438,540.62,538.905,0.0
53781.0,STARLINK-4462,PAYLOAD,2023-06-08 03:33:53,15.08835505,0.0001152,53.2162,108.1672,90.2664,269.846,-1.3777e-05,-5.07e-06,0.0,0 STARLINK-4462,1 53781U 22111J   23159.14854157 -.00000507  00000-0 -13777-4 0  9999,2 53781  53.2162 108.1672 0001152  90.2664 269.8460 15.08835505 41893,6917.894,95.438,540.556,538.962,0.0
53781.0,STARLINK-4462,PAYLOAD,2023-06-09 01:49:17,15.08851585,0.0001148,53.2149,104.0016,87.6195,272.4929,-5.4788e-05,-1.16e-05,0.0,0 STARLINK-4462,1 53781U 22111J   23160.07589533 -.00001160  00000-0 -54788-4 0  9999,2 53781  53.2149 104.0016 0001148  87.6195 272.4929 15.08851585 41222,6917.845,95.437,540.504,538.916,0.0
53781.0,STARLINK-4462,PAYLOAD,2023-06-09 12:56:59,15.08845701,0.0001081,53.2169,101.9231,90.7177,269.3939,5.6342e-05,6.09e-06,0.0,0 STARLINK-4462,1 53781U 22111J   23160.53957411  .00000609  00000-0  56342-4 0  9997,2 53781  53.2169 101.9231 0001081  90.7177 269.3939 15.08845701 42107,6917.863,95.437,540.476,538.98,0.0
53781.0,STARLINK-4462,PAYLOAD,2023-06-09 20:53:55,15.08833432,0.0001264,53.219,100.4418,95.4931,264.6205,7.623e-05,9.25e-06,0.0,0 STARLINK-4462,1 53781U 22111J   23160.87078338  .00000925  00000-0  76230-4 0  9995,2 53781  53.2190 100.4418 0001264  95.4931 264.6205 15.08833432 42152,6917.9,95.438,540.64,538.891,0.0
53781.0,STARLINK-4462,PAYLOAD,2023-06-10 01:40:05,15.08833907,0.0001382,53.2186,99.5498,97.0052,263.1097,5.8832e-05,6.48e-06,0.0,0 STARLINK-4462,1 53781U 22111J   23161.06950442  .00000648  00000-0  58832-4 0  9992,2 53781  53.2186  99.5498 0001382  97.0052 263.1097 15.08833907 41379,6917.899,95.438,540.72,538.808,0.0
53781.0,STARLINK-4462,PAYLOAD,2023-06-10 12:47:47,15.08835555,0.0001436,53.2189,97.4669,100.9207,259.1947,1.732e-05,-1.2e-07,0.0,0 STARLINK-4462,1 53781U 22111J   23161.53318599 -.00000012  00000-0  17320-4 0  9998,2 53781  53.2189  97.4669 0001436 100.9207 259.1947 15.08835555 42253,6917.894,95.438,540.752,538.766,0.0
53781.0,STARLINK-4462,PAYLOAD,2023-06-10 20:44:42,15.08842157,0.0001539,53.2164,95.9781,122.6684,237.4457,-6.2261e-05,-1.279e-05,0.0,0 STARLINK-4462,1 53781U 22111J   23161.86438438 -.00001279  00000-0 -62261-4 0  9990,2 53781  53.2164  95.9781 0001539 122.6684 237.4457 15.08842157 42305,6917.874,95.437,540.803,538.674,0.0
